CCSDS_OMM_VERS,COMMENT,CREATION_DATE,ORIGINATOR,OBJECT_NAME,OBJECT_ID,CENTER_NAME,REF_FRAME,TIME_SYSTEM,MEAN_ELEMENT_THEORY,EPOCH,MEAN_MOTION,ECCENTRICITY,INCLINATION,RA_OF_ASC_NODE,ARG_OF_PERICENTER,MEAN_ANOMALY,EPHEMERIS_TYPE,CLASSIFICATION_TYPE,NORAD_CAT_ID,ELEMENT_SET_NO,REV_AT_EPOCH,BSTAR,MEAN_MOTION_DOT,MEAN_MOTION_DDOT,SEMIMAJOR_AXIS,PERIOD,APOAPSIS,PERIAPSIS,OBJECT_TYPE,RCS_SIZE,COUNTRY_CODE,LAUNCH_DATE,SITE,DECAY_DATE,FILE,GP_ID,TLE_LINE0,TLE_LINE1,TLE_LINE2
2,GENERATED VIA SPACE-TRACK.ORG API,2012-04-24T01:15:35,18 SPCS,GALILEO-FM2,2011-060B,EARTH,TEME,UTC,SGP4,2012-04-23T13:27:06.293663,1.70474814,0.0006068,54.7358,124.5936,280.9524,79.01,0,U,37847,999,315,0.0001,5.8e-07,0,29600.244,844.699,23240.071,23204.148,PAYLOAD,LARGE,ESA,2011-10-21,FRGUI,,1275949,88346439,0 GALILEO-FM2,1 37847U 11060B   12114.56048951  .00000058  00000-0  10000-3 0  9991,2 37847 054.7358 124.5936 0006068 280.9524 079.0100 01.70474814  3155
2,GENERATED VIA SPACE-TRACK.ORG API,2012-04-25T08:13:50,18 SPCS,GALILEO-FM2,2011-060B,EARTH,TEME,UTC,SGP4,2012-04-24T03:31:46.422912,1.7047482,0.0006067,54.736,124.5772,280.8839,79.0764,0,U,37847,999,316,0.0001,5.9e-07,0,29600.244,844.699,23240.067,23204.15,PAYLOAD,LARGE,ESA,2011-10-21,FRGUI,,1276526,88369998,0 GALILEO-FM2,1 37847U 11060B   12115.14706508 +.00000059 +00000-0 +10000-3 0  9996,2 37847 054.7360 124.5772 0006067 280.8839 079.0764 01.70474820003167
2,GENERATED VIA SPACE-TRACK.ORG API,2012-04-26T08:42:40,18 SPCS,GALILEO-FM2,2011-060B,EARTH,TEME,UTC,SGP4,2012-04-25T07:41:06.780767,1.70474825,0.0006044,54.7364,124.5441,280.8174,79.1393,0,U,37847,999,318,0.0001,6.2e-07,0,29600.243,844.699,23239.998,23204.218,PAYLOAD,LARGE,ESA,2011-10-21,FRGUI,,1277113,88385597,0 GALILEO-FM2,1 37847U 11060B   12116.32021737 +.00000062 +00000-0 +10000-3 0  9995,2 37847 054.7364 124.5441 0006044 280.8174 079.1393 01.70474825003187
2,GENERATED VIA SPACE-TRACK.ORG API,2012-04-26T10:47:49,18 SPCS,GALILEO-FM2,2011-060B,EARTH,TEME,UTC,SGP4,2012-04-26T11:50:27.476448,1.70474825,0.0006043,54.7369,124.5116,280.9018,79.0527,0,U,37847,999,320,0.0001,6.5e-07,0,29600.243,844.699,23239.995,23204.221,PAYLOAD,LARGE,ESA,2011-10-21,FRGUI,,1277257,88388755,0 GALILEO-FM2,1 37847U 11060B   12117.49337357  .00000065  00000-0  10000-3 0  9995,2 37847 054.7369 124.5116 0006043 280.9018 079.0527 01.70474825  3209
2,GENERATED VIA SPACE-TRACK.ORG API,2012-04-28T09:05:19,18 SPCS,GALILEO-FM2,2011-060B,EARTH,TEME,UTC,SGP4,2012-04-27T01:55:08.020415,1.70474826,0.0006044,54.7372,124.4951,280.9909,78.9639,0,U,37847,999,321,0.0001,6.8e-07,0,29600.243,844.699,23239.998,23204.217,PAYLOAD,LARGE,ESA,2011-10-21,FRGUI,,1278172,88417686,0 GALILEO-FM2,1 37847U 11060B   12118.07995394 +.00000068 +00000-0 +10000-3 0  9994,2 37847 054.7372 124.4951 0006044 280.9909 078.9639 01.70474826003213
2,GENERATED VIA SPACE-TRACK.ORG API,2012-04-29T09:06:32,18 SPCS,GALILEO-FM2,2011-060B,EARTH,TEME,UTC,SGP4,2012-04-28T06:04:29.269920,1.70474828,0.0006047,54.7378,124.4623,280.8672,79.0898,0,U,37847,999,323,0.0001,7.3e-07,0,29600.243,844.699,23240.007,23204.208,PAYLOAD,LARGE,ESA,2011-10-21,FRGUI,,1278545,88431903,0 GALILEO-FM2,1 37847U 11060B   12119.25311655 +.00000073 +00000-0 +10000-3 0  9993,2 37847 054.7378 124.4623 0006047 280.8672 079.0898 01.70474828003237
2,GENERATED VIA SPACE-TRACK.ORG API,2012-04-30T01:17:17,18 SPCS,GALILEO-FM2,2011-060B,EARTH,TEME,UTC,SGP4,2012-04-30T00:18:31.418496,1.7047484,0.0006078,54.7383,124.4125,281.041,78.9214,0,U,37847,999,326,0.0001,8.2e-07,0,29600.241,844.699,23240.097,23204.115,PAYLOAD,LARGE,ESA,2011-10-21,FRGUI,,1278809,88437670,0 GALILEO-FM2,1 37847U 11060B   12121.01286364  .00000082  00000-0  10000-3 0  9998,2 37847 054.7383 124.4125 0006078 281.0410 078.9214 01.70474840  3264
2,GENERATED VIA SPACE-TRACK.ORG API,2012-05-02T07:44:06,18 SPCS,GALILEO-FM2,2011-060B,EARTH,TEME,UTC,SGP4,2012-05-01T04:27:52.566047,1.70474848,0.000608,54.7387,124.3796,280.9888,78.9752,0,U,37847,999,328,0.0001,8.6e-07,0,29600.24,844.699,23240.102,23204.108,PAYLOAD,LARGE,ESA,2011-10-21,FRGUI,,1280170,88475626,0 GALILEO-FM2,1 37847U 11060B   12122.18602507 +.00000086 +00000-0 +10000-3 0  9992,2 37847 054.7387 124.3796 0006080 280.9888 078.9752 01.70474848003288
2,GENERATED VIA SPACE-TRACK.ORG API,2012-05-03T01:58:30,18 SPCS,GALILEO-FM2,2011-060B,EARTH,TEME,UTC,SGP4,2012-05-02T22:41:53.597471,1.70474878,0.0006118,54.7393,124.3304,281.3715,78.5902,0,U,37847,999,331,0.0001,8.6e-07,0,29600.237,844.699,23240.211,23203.992,PAYLOAD,LARGE,ESA,2011-10-21,FRGUI,,1280861,88483182,0 GALILEO-FM2,1 37847U 11060B   12123.94575923  .00000086  00000-0  10000-3 0  9998,2 37847 054.7393 124.3304 0006118 281.3715 078.5902 01.70474878  3316
2,GENERATED VIA SPACE-TRACK.ORG API,2012-05-04T07:38:55,18 SPCS,GALILEO-FM2,2011-060B,EARTH,TEME,UTC,SGP4,2012-05-03T12:46:33.509855,1.70474899,0.0006121,54.7396,124.3141,281.865,78.0931,0,U,37847,999,332,0.0001,8.3e-07,0,29600.234,844.699,23240.218,23203.981,PAYLOAD,LARGE,ESA,2011-10-21,FRGUI,,1281565,88505791,0 GALILEO-FM2,1 37847U 11060B   12124.53233229 +.00000083 +00000-0 +10000-3 0  9991,2 37847 054.7396 124.3141 0006121 281.8650 078.0931 01.70474899003326
2,GENERATED VIA SPACE-TRACK.ORG API,2012-05-05T07:27:14,18 SPCS,GALILEO-FM2,2011-060B,EARTH,TEME,UTC,SGP4,2012-05-04T02:51:13.385088,1.70474916,0.0006129,54.7398,124.2979,282.0553,77.899,0,U,37847,999,333,0.0001,8e-07,0,29600.232,844.699,23240.239,23203.955,PAYLOAD,LARGE,ESA,2011-10-21,FRGUI,,1282225,88520918,0 GALILEO-FM2,1 37847U 11060B   12125.11890492 +.00000080 +00000-0 +10000-3 0  9994,2 37847 054.7398 124.2979 0006129 282.0553 077.8990 01.70474916003332
2,GENERATED VIA SPACE-TRACK.ORG API,2012-05-06T08:46:15,18 SPCS,GALILEO-FM2,2011-060B,EARTH,TEME,UTC,SGP4,2012-05-04T16:55:53.132448,1.70474921,0.0006145,54.7402,124.2816,282.0883,77.861,0,U,37847,999,334,0.0001,7.5e-07,0,29600.232,844.699,23240.286,23203.908,PAYLOAD,LARGE,ESA,2011-10-21,FRGUI,,1282624,88536349,0 GALILEO-FM2,1 37847U 11060B   12125.70547607 +.00000075 +00000-0 +10000-3 0  9990,2 37847 054.7402 124.2816 0006145 282.0883 077.8610 01.70474921003348
2,GENERATED VIA SPACE-TRACK.ORG API,2012-05-06T01:20:19,18 SPCS,GALILEO-FM2,2011-060B,EARTH,TEME,UTC,SGP4,2012-05-05T21:05:12.558911,1.70474926,0.000615,54.7406,124.2488,282.085,77.8535,0,U,37847,999,336,0.0001,6.5e-07,0,29600.231,844.699,23240.3,23203.892,PAYLOAD,LARGE,ESA,2011-10-21,FRGUI,,1282532,88527581,0 GALILEO-FM2,1 37847U 11060B   12126.87861758  .00000065  00000-0  10000-3 0  9994,2 37847 054.7406 124.2488 0006150 282.0850 077.8535 01.70474926  3360
2,GENERATED VIA SPACE-TRACK.ORG API,2012-05-08T08:34:24,18 SPCS,GALILEO-FM2,2011-060B,EARTH,TEME,UTC,SGP4,2012-05-07T15:19:11.927999,1.70474927,0.0006115,54.7413,124.1994,282.0964,77.8275,0,U,37847,999,339,0.0001,5e-07,0,29600.231,844.698,23240.197,23203.996,PAYLOAD,LARGE,ESA,2011-10-21,FRGUI,,1283474,88565862,0 GALILEO-FM2,1 37847U 11060B   12128.63833250 +.00000050 +00000-0 +10000-3 0  9990,2 37847 054.7413 124.1994 0006115 282.0964 077.8275 01.70474927003391
2,GENERATED VIA SPACE-TRACK.ORG API,2012-05-08T17:15:18,18 SPCS,GALILEO-FM2,2011-060B,EARTH,TEME,UTC,SGP4,2012-05-08T05:23:51.994175,1.70474919,0.0006141,54.7414,124.1829,282.2629,77.6574,0,U,37847,999,340,0.0001,4.7e-07,0,29600.232,844.699,23240.275,23203.92,PAYLOAD,LARGE,ESA,2011-10-21,FRGUI,,1283729,88569999,0 GALILEO-FM2,1 37847U 11060B   12129.22490734  .00000047  00000-0  10000-3 0  9998,2 37847 054.7414 124.1829 0006141 282.2629 077.6574 01.70474919  3401
2,GENERATED VIA SPACE-TRACK.ORG API,2012-05-10T08:09:11,18 SPCS,GALILEO-FM2,2011-060B,EARTH,TEME,UTC,SGP4,2012-05-08T19:28:32.212415,1.7047492,0.0006158,54.7417,124.1665,282.3881,77.5301,0,U,37847,999,341,0.0001,4.5e-07,0,29600.232,844.699,23240.325,23203.869,PAYLOAD,LARGE,ESA,2011-10-21,FRGUI,,1284661,88596444,0 GALILEO-FM2,1 37847U 11060B   12129.81148394 +.00000045 +00000-0 +10000-3 0  9993,2 37847 054.7417 124.1665 0006158 282.3881 077.5301 01.70474920003411
2,GENERATED VIA SPACE-TRACK.ORG API,2012-05-10T20:48:20,18 SPCS,GALILEO-FM2,2011-060B,EARTH,TEME,UTC,SGP4,2012-05-10T13:42:33.459840,1.70474918,0.0006165,54.7423,124.1172,282.3878,77.5288,0,U,37847,999,344,0.0001,4.6e-07,0,29600.232,844.699,23240.346,23203.849,PAYLOAD,LARGE,ESA,2011-10-21,FRGUI,,1285056,88600479,0 GALILEO-FM2,1 37847U 11060B   12131.57122060  .00000046  00000-0  10000-3 0  9992,2 37847 054.7423 124.1172 0006165 282.3878 077.5288 01.70474918  3449
2,GENERATED VIA SPACE-TRACK.ORG API,2012-05-11T08:15:48,18 SPCS,GALILEO-FM2,2011-060B,EARTH,TEME,UTC,SGP4,2012-05-10T13:42:33.459840,1.70474918,0.0006165,54.7423,124.1172,282.3878,77.5288,0,U,37847,999,344,0.0001,4.6e-07,0,29600.232,844.699,23240.346,23203.849,PAYLOAD,LARGE,ESA,2011-10-21,FRGUI,,1285271,88612024,0 GALILEO-FM2,1 37847U 11060B   12131.57122060 +.00000046 +00000-0 +10000-3 0  9992,2 37847 054.7423 124.1172 0006165 282.3878 077.5288 01.70474918003449
2,GENERATED VIA SPACE-TRACK.ORG API,2012-05-12T07:40:32,18 SPCS,GALILEO-FM2,2011-060B,EARTH,TEME,UTC,SGP4,2012-05-11T17:51:54.834624,1.70474906,0.0006161,54.7428,124.0843,282.4226,77.4961,0,U,37847,999,346,0.0001,5e-07,0,29600.234,844.699,23240.335,23203.862,PAYLOAD,LARGE,ESA,2011-10-21,FRGUI,,1285753,88626704,0 GALILEO-FM2,1 37847U 11060B   12132.74438466 +.00000050 +00000-0 +10000-3 0  9997,2 37847 054.7428 124.0843 0006161 282.4226 077.4961 01.70474906003468
2,GENERATED VIA SPACE-TRACK.ORG API,2012-05-13T14:21:46,18 SPCS,GALILEO-FM2,2011-060B,EARTH,TEME,UTC,SGP4,2012-05-12T07:56:35.712959,1.70474905,0.0006167,54.7432,124.068,282.5369,77.3844,0,U,37847,999,347,0.0001,5.3e-07,0,29600.234,844.699,23240.353,23203.844,PAYLOAD,LARGE,ESA,2011-10-21,FRGUI,,1286272,88644923,0 GALILEO-FM2,1 37847U 11060B   12133.33096890 +.00000053 +00000-0 +10000-3 0  9997,2 37847 054.7432 124.0680 0006167 282.5369 077.3844 01.70474905003476
